NORAD_CAT_ID,OBJECT_NAME,OBJECT_TYPE,EPOCH,MEAN_MOTION,ECCENTRICITY,INCLINATION,RA_OF_ASC_NODE,ARG_OF_PERICENTER,MEAN_ANOMALY,BSTAR,MEAN_MOTION_DOT,MEAN_MOTION_DDOT,TLE_LINE0,TLE_LINE1,TLE_LINE2,SEMIMAJOR_AXIS,PERIOD,APOGEE,PERIGEE,DECAYED
53911.0,STARLINK-5048,PAYLOAD,2023-04-21 16:19:29,15.08838196,6.14e-05,53.2163,1.445,94.7911,265.3151,0.00023733,3.491e-05,0.0,0 STARLINK-5048,1 53911U 22119AB  23111.68019775  .00003491  00000-0  23733-3 0  9993,2 53911  53.2163   1.4450 0000614  94.7911 265.3151 15.08838196 32431,6917.886,95.438,540.176,539.326,0.0
53911.0,STARLINK-5048,PAYLOAD,2023-04-22 01:51:47,15.08845525,0.0001012,53.2174,359.6607,75.0755,285.0349,0.00024503,3.615e-05,0.0,0 STARLINK-5048,1 53911U 22119AB  23112.07763676  .00003615  00000-0  24503-3 0  9997,2 53911  53.2174 359.6607 0001012  75.0755 285.0349 15.08845525 32911,6917.864,95.437,540.429,539.028,0.0
53911.0,STARLINK-5048,PAYLOAD,2023-04-22 22:31:47,15.08853024,7.47e-05,53.218,355.7937,74.9424,285.1651,1.0348e-05,-1.23e-06,0.0,0 STARLINK-5048,1 53911U 22119AB  23112.93874697 -.00000123  00000-0  10348-4 0  9993,2 53911  53.2180 355.7937 0000747  74.9424 285.1651 15.08853024 33041,6917.841,95.437,540.222,539.189,0.0
53911.0,STARLINK-5048,PAYLOAD,2023-04-23 01:42:33,15.08856953,7.61e-05,53.2189,355.1992,79.0717,281.0361,2.7487e-05,1.5e-06,0.0,0 STARLINK-5048,1 53911U 22119AB  23113.07122481  .00000150  00000-0  27487-4 0  9997,2 53911  53.2189 355.1992 0000761  79.0717 281.0361 15.08856953 33061,6917.829,95.436,540.22,539.167,0.0
53911.0,STARLINK-5048,PAYLOAD,2023-04-23 16:01:03,15.08840877,0.0001083,53.2187,352.5249,69.3511,290.7597,6.2315e-05,7.04e-06,0.0,0 STARLINK-5048,1 53911U 22119AB  23113.66739674  .00000704  00000-0  62315-4 0  9994,2 53911  53.2187 352.5249 0001083  69.3511 290.7597 15.08840877 32736,6917.878,95.437,540.492,538.994,0.0
53911.0,STARLINK-5048,PAYLOAD,2023-04-23 19:11:49,15.0884167,9.64e-05,53.2187,351.9308,73.7617,286.3481,5.9842e-05,6.65e-06,0.0,0 STARLINK-5048,1 53911U 22119AB  23113.79987448  .00000665  00000-0  59842-4 0  9999,2 53911  53.2187 351.9308 0000964  73.7617 286.3481 15.08841670 33172,6917.875,95.437,540.407,539.073,0.0
53911.0,STARLINK-5048,PAYLOAD,2023-04-24 01:33:20,15.08852899,0.0001039,53.2184,350.7395,80.8314,279.2796,0.00012317,1.674e-05,0.0,0 STARLINK-5048,1 53911U 22119AB  23114.06482540  .00001674  00000-0  12317-3 0  9999,2 53911  53.2184 350.7395 0001039  80.8314 279.2796 15.08852899 32791,6917.841,95.437,540.425,538.987,0.0
53911.0,STARLINK-5048,PAYLOAD,2023-04-24 17:27:11,15.08870111,7.64e-05,53.2164,347.7658,62.6904,297.4165,0.00030952,4.646e-05,0.0,0 STARLINK-5048,1 53911U 22119AB  23114.72721111  .00004646  00000-0  30952-3 0  9999,2 53911  53.2164 347.7658 0000764  62.6904 297.4165 15.08870111 32894,6917.788,95.436,540.182,539.125,0.0
53911.0,STARLINK-5048,PAYLOAD,2023-04-25 01:24:06,15.08881229,0.0001372,53.2169,346.2806,78.4731,281.6416,0.00058599,9.061e-05,0.0,0 STARLINK-5048,1 53911U 22119AB  23115.05840358  .00009061  00000-0  58599-3 0  9994,2 53911  53.2169 346.2806 0001372  78.4731 281.6416 15.08881229 33366,6917.754,95.435,540.568,538.67,0.0
53911.0,STARLINK-5048,PAYLOAD,2023-04-26 01:14:56,15.08807406,0.000104,53.2171,341.8169,117.359,242.7508,-0.0005892,-9.644e-05,0.0,0 STARLINK-5048,1 53911U 22119AB  23116.05203741 -.00009644  00000-0 -58920-3 0  9991,2 53911  53.2171 341.8169 0001040 117.3590 242.7508 15.08807406 33512,6917.98,95.44,540.564,539.126,0.0
53911.0,STARLINK-5048,PAYLOAD,2023-04-26 21:54:57,15.08823053,9.35e-05,53.2164,337.9534,115.6209,244.488,3.9318e-05,3.38e-06,0.0,0 STARLINK-5048,1 53911U 22119AB  23116.91316764  .00000338  00000-0  39318-4 0  9996,2 53911  53.2164 337.9534 0000935 115.6209 244.4880 15.08823053 33648,6917.932,95.439,540.444,539.15,0.0
53911.0,STARLINK-5048,PAYLOAD,2023-04-27 01:05:44,15.0882723,0.00011,53.2164,337.358,118.0002,242.1101,0.00023244,3.412e-05,0.0,0 STARLINK-5048,1 53911U 22119AB  23117.04564913  .00003412  00000-0  23244-3 0  9998,2 53911  53.2164 337.3580 0001100 118.0002 242.1101 15.08827230 33244,6917.919,95.438,540.545,539.023,0.0
53911.0,STARLINK-5048,PAYLOAD,2023-04-28 00:56:30,15.08873343,8.12e-05,53.2164,332.8976,125.078,235.0288,0.0013414,0.00021144,0.0,0 STARLINK-5048,1 53911U 22119AB  23118.03924645  .00021144  00000-0  13414-2 0  9999,2 53911  53.2164 332.8976 0000812 125.0780 235.0288 15.08873343 33392,6917.778,95.435,540.205,539.082,0.0
53911.0,STARLINK-5048,PAYLOAD,2023-04-28 07:18:02,15.08868889,0.0001301,53.2165,331.7144,234.2188,125.8684,0.00023605,3.474e-05,0.0,0 STARLINK-5048,1 53911U 22119AB  23118.30419836  .00003474  00000-0  23605-3 0  9990,2 53911  53.2165 331.7144 0001301 234.2188 125.8684 15.08868889 33437,6917.792,95.436,540.557,538.757,0.0
53911.0,STARLINK-5048,PAYLOAD,2023-04-28 16:50:22,15.08857458,0.0001066,53.2158,329.9253,104.6959,255.4151,0.00078175,0.00012181,0.0,0 STARLINK-5048,1 53911U 22119AB  23118.70164408  .00012181  00000-0  78175-3 0  9993,2 53911  53.2158 329.9253 0001066 104.6959 255.4151 15.08857458 33498,6917.827,95.436,540.429,538.955,0.0
53911.0,STARLINK-5048,PAYLOAD,2023-04-29 02:22:40,15.08864212,8.13e-05,53.216,328.1403,109.7588,250.3492,0.00048794,7.491e-05,0.0,0 STARLINK-5048,1 53911U 22119AB  23119.09907838  .00007491  00000-0  48794-3 0  9990,2 53911  53.2160 328.1403 0000813 109.7588 250.3492 15.08864212 33973,6917.806,95.436,540.234,539.109,0.0
53911.0,STARLINK-5048,PAYLOAD,2023-04-29 16:41:08,15.08850024,6.7e-05,53.2153,325.4645,93.6219,266.485,0.00042145,6.428e-05,0.0,0 STARLINK-5048,1 53911U 22119AB  23119.69523974  .00006428  00000-0  42145-3 0  9994,2 53911  53.2153 325.4645 0000670  93.6219 266.4850 15.08850024 33642,6917.85,95.437,540.178,539.251,0.0
53911.0,STARLINK-5048,PAYLOAD,2023-04-29 21:27:17,15.0886027,7.88e-05,53.2159,324.5722,96.3057,263.8025,0.00074226,0.00011551,0.0,0 STARLINK-5048,1 53911U 22119AB  23119.89395713  .00011551  00000-0  74226-3 0  9992,2 53911  53.2159 324.5722 0000788  96.3057 263.8025 15.08860270 33676,6917.818,95.436,540.229,539.138,0.0
53911.0,STARLINK-5048,PAYLOAD,2023-04-30 18:07:18,15.08846379,9.62e-05,53.216,320.706,120.5062,239.6025,0.00079938,0.00012459,0.0,0 STARLINK-5048,1 53911U 22119AB  23120.75507988  .00012459  00000-0  79938-3 0  9991,2 53911  53.2160 320.7060 0000962 120.5062 239.6025 15.08846379 33801,6917.861,95.437,540.391,539.06,0.0
53911.0,STARLINK-5048,PAYLOAD,2023-05-01 00:28:51,15.08842245,0.0001132,53.2162,319.5177,72.252,287.8596,0.00022344,3.27e-05,0.0,0 STARLINK-5048,1 53911U 22119AB  23121.02004218  .00003270  00000-0  22344-3 0  9990,2 53911  53.2162 319.5177 0001132  72.2520 287.8596 15.08842245 33840,6917.874,95.437,540.522,538.955,0.0
53911.0,STARLINK-5048,PAYLOAD,2023-05-01 13:11:56,15.08839454,9.38e-05,53.2179,317.136,83.2384,276.8714,0.00012778,1.746e-05,0.0,0 STARLINK-5048,1 53911U 22119AB  23121.54996376  .00001746  00000-0  12778-3 0  9998,2 53911  53.2179 317.1360 0000938  83.2384 276.8714 15.08839454 34343,6917.882,95.438,540.396,539.098,0.0
53911.0,STARLINK-5048,PAYLOAD,2023-05-01 19:33:29,15.08845573,9.44e-05,53.217,315.9489,95.1948,264.9151,0.00010878,1.444e-05,0.0,0 STARLINK-5048,1 53911U 22119AB  23121.81492064  .00001444  00000-0  10878-3 0  9997,2 53911  53.2170 315.9489 0000944  95.1948 264.9151 15.08845573 34383,6917.863,95.437,540.381,539.075,0.0
53911.0,STARLINK-5048,PAYLOAD,2023-05-02 13:02:44,15.0882455,0.0001035,53.2167,312.6786,88.9041,271.207,0.00066479,0.00010304,0.0,0 STARLINK-5048,1 53911U 22119AB  23122.54356889  .00010304  00000-0  66479-3 0  9995,2 53911  53.2167 312.6786 0001035  88.9041 271.2070 15.08824550 34494,6917.928,95.439,540.509,539.077,0.0
53911.0,STARLINK-5048,PAYLOAD,2023-05-02 19:24:16,15.08845813,0.000103,53.217,311.4896,82.8854,277.2255,0.00016104,2.276e-05,0.0,0 STARLINK-5048,1 53911U 22119AB  23122.80851955  .00002276  00000-0  16104-3 0  9997,2 53911  53.2170 311.4896 0001030  82.8854 277.2255 15.08845813 34538,6917.863,95.437,540.44,539.015,0.0
53911.0,STARLINK-5048,PAYLOAD,2023-05-03 04:56:35,15.08835464,7.45e-05,53.217,309.7028,100.4708,259.6368,-2.7055e-05,-7.18e-06,0.0,0 STARLINK-5048,1 53911U 22119AB  23123.20596296 -.00000718  00000-0 -27055-4 0  9995,2 53911  53.2170 309.7028 0000745 100.4708 259.6368 15.08835464 34172,6917.894,95.438,540.275,539.244,0.0
53911.0,STARLINK-5048,PAYLOAD,2023-05-03 12:53:31,15.08833021,8.77e-05,53.2166,308.2177,86.7995,273.3098,-2.485e-05,-6.83e-06,0.0,0 STARLINK-5048,1 53911U 22119AB  23123.53716570 -.00000683  00000-0 -24850-4 0  9991,2 53911  53.2166 308.2177 0000877  86.7995 273.3098 15.08833021 34648,6917.902,95.438,540.373,539.16,0.0
53911.0,STARLINK-5048,PAYLOAD,2023-05-03 22:25:49,15.08839901,9.28e-05,53.2162,306.4317,97.3882,262.7215,4.2616e-05,3.91e-06,0.0,0 STARLINK-5048,1 53911U 22119AB  23123.93460246  .00000391  00000-0  42616-4 0  9995,2 53911  53.2162 306.4317 0000928  97.3882 262.7215 15.08839901 34703,6917.881,95.438,540.388,539.104,0.0
53911.0,STARLINK-5048,PAYLOAD,2023-05-04 11:08:54,15.08837907,8.74e-05,53.216,304.0527,88.7856,271.3237,5.2631e-05,5.5e-06,0.0,0 STARLINK-5048,1 53911U 22119AB  23124.46452451  .00000550  00000-0  52631-4 0  9998,2 53911  53.2160 304.0527 0000874  88.7856 271.3237 15.08837907 34369,6917.887,95.438,540.356,539.147,0.0
53911.0,STARLINK-5048,PAYLOAD,2023-05-04 19:05:50,15.0884621,8.68e-05,53.2157,302.566,92.2243,267.8849,0.00020265,2.939e-05,0.0,0 STARLINK-5048,1 53911U 22119AB  23124.79572097  .00002939  00000-0  20265-3 0  9993,2 53911  53.2157 302.5660 0000868  92.2243 267.8849 15.08846210 34837,6917.861,95.437,540.327,539.126,0.0
53911.0,STARLINK-5048,PAYLOAD,2023-05-05 10:59:42,15.08834823,8.53e-05,53.2152,299.5931,88.4092,271.6997,5.1791e-05,5.37e-06,0.0,0 STARLINK-5048,1 53911U 22119AB  23125.45812676  .00000537  00000-0  51791-4 0  9998,2 53911  53.2152 299.5931 0000853  88.4092 271.6997 15.08834823 34510,6917.896,95.438,540.351,539.171,0.0
